{
  "type": "FeatureCollection",
  "features": [
    {
      "type": "Feature",
      "geometry": {
        "type": "Polygon",
        "coordinates": [
          [
            [
              136.62798448196958,
              36.53068439913791
            ],
            [
              136.6279796098009,
              36.53062567450867
            ],
            [
              136.62791139943698,
              36.530617844555096
            ],
            [
              136.6279016550996,
              36.53064916436553
            ],
            [
              136.62760932496514,
              36.53066090929174
            ],
            [
              136.62760932496514,
              36.53060218464469
            ],
            [
              136.62741443821108,
              36.530594354688716
            ],
            [
              136.62741443821108,
              36.530386860558295
            ],
            [
              136.62739494953416,
              36.53023026084644
            ],
            [
              136.6276483023169,
              36.53022634584974
            ],
            [
              136.6276483023169,
              36.530277240793225
            ],
            [
              136.6277165126807,
              36.530281155787364
            ],
            [
              136.6277165126807,
              36.53024592083217
            ],
            [
              136.62804294799815,
              36.53022634584974
            ],
            [
              136.62805269233553,
              36.530422095450135
            ],
            [
              136.62848631536633,
              36.530414265475045
            ],
            [
              136.62848631536633,
              36.530594354688716
            ],
            [
              136.62840836066295,
              36.53062567450867
            ],
            [
              136.62839374415688,
              36.53068831411139
            ],
            [
              136.62834989463653,
              36.53068439913791
            ],
            [
              136.62835476680522,
              36.53061001460071
            ],
            [
              136.62805756450422,
              36.53062958948516
            ],
            [
              136.6280380758273,
              36.53067656919022
            ],
            [
              136.62798448196958,
              36.53068439913791
            ]
          ]
        ]
      },
      "properties": {
        "tempId": "B-01",
        "code": "1",
        "name": "1号館",
        "floors": 4,
        "note": "１階に修学相談室、２階に教務課、入試センター１階、庶務課１階、オナーズプログラム推進課４階、教職支援室４階",
        "category": "hall"
      }
    },
    {
      "type": "Feature",
      "geometry": {
        "type": "Polygon",
        "coordinates": [
          [
            [
              136.62773667080523,
              36.5320114545206
            ],
            [
              136.62772621100368,
              36.53160382528617
            ],
            [
              136.6286571331791,
              36.531574408660646
            ],
            [
              136.62867282287806,
              36.53199044275685
            ],
            [
              136.62773667080523,
              36.5320114545206
            ]
          ]
        ]
      },
      "properties": {
        "tempId": "B-02",
        "code": "7",
        "name": "7号館",
        "floors": 4,
        "note": "1階に自習室",
        "category": "hall"
      }
    },
    {
      "type": "Feature",
      "geometry": {
        "type": "Polygon",
        "coordinates": [
          [
            [
              136.6282957398676,
              36.53139833680716
            ],
            [
              136.62828557598323,
              36.53114924308339
            ],
            [
              136.62834147734918,
              36.53114924308339
            ],
            [
              136.62833639540474,
              36.53088381446372
            ],
            [
              136.6282398385016,
              36.53088381446372
            ],
            [
              136.62827033015458,
              36.5309123991279
            ],
            [
              136.62816869130694,
              36.53103082119631
            ],
            [
              136.62816869130694,
              36.53107573986456
            ],
            [
              136.62806197051947,
              36.53107573986456
            ],
            [
              136.62806197051947,
              36.53104307174519
            ],
            [
              136.62793492195885,
              36.53093690026033
            ],
            [
              136.6279654136141,
              36.530871563889605
            ],
            [
              136.62797557749838,
              36.53076539216927
            ],
            [
              136.62798574138264,
              36.53076130863886
            ],
            [
              136.62798065944054,
              36.5307082227217
            ],
            [
              136.62802639692217,
              36.530704139188245
            ],
            [
              136.62803147886433,
              36.53075314157735
            ],
            [
              136.62833639540474,
              36.53074497451405
            ],
            [
              136.62834655929134,
              36.53069597211976
            ],
            [
              136.6284024606573,
              36.53069597211976
            ],
            [
              136.6283922967707,
              36.530740890982514
            ],
            [
              136.6285345911578,
              36.530740890982514
            ],
            [
              136.6285345911578,
              36.53077355923044
            ],
            [
              136.6286463938897,
              36.53077355923044
            ],
            [
              136.62866163971614,
              36.53141467079308
            ],
            [
              136.6282957398676,
              36.53141875428905
            ],
            [
              136.6282957398676,
              36.53139833680716
            ]
          ]
        ]
      },
      "properties": {
        "tempId": "B-03",
        "code": "5",
        "name": "5号館",
        "floors": 2,
        "note": "金沢工業大学内簡易郵便局が１階",
        "category": "hall"
      }
    },
    {
      "type": "Feature",
      "geometry": {
        "type": "Polygon",
        "coordinates": [
          [
            [
              136.62909573034392,
              36.5314921479775
            ],
            [
              136.62908500150826,
              36.53103523683511
            ],
            [
              136.62986820653998,
              36.53102661584407
            ],
            [
              136.62986552433108,
              36.53148568227289
            ],
            [
              136.62950342611435,
              36.53149430321227
            ],
            [
              136.62949269727636,
              36.53137360996868
            ],
            [
              136.62934249357284,
              36.53136714425413
            ],
            [
              136.629339811364,
              36.531431801377565
            ],
            [
              136.6292781205567,
              36.531427490904505
            ],
            [
              136.6292673917211,
              36.5314921479775
            ],
            [
              136.62909573034392,
              36.5314921479775
            ]
          ]
        ]
      },
      "properties": {
        "tempId": "B-04",
        "code": "23",
        "name": "23号館",
        "floors": 5,
        "note": "数理工教育研究センターが４階と５階、基礎英語教育センターが２階と３階、留学支援・国際交流センターが２階、学生ステーションが１階、CDIOイノベーション＆デザインスタジオが１階",
        "category": "hall"
      }
    },
    {
      "type": "Feature",
      "geometry": {
        "type": "Polygon",
        "coordinates": [
          [
            [
              136.62912346462582,
              36.53067441528265
            ],
            [
              136.629105852733,
              36.530634790146394
            ],
            [
              136.6290354051589,
              36.53062912941121
            ],
            [
              136.62903188278034,
              36.53029231490606
            ],
            [
              136.6291023303545,
              36.53027533262333
            ],
            [
              136.629105852733,
              36.530244198428534
            ],
            [
              136.62918334506423,
              36.53024136804669
            ],
            [
              136.62917982268573,
              36.53017060846359
            ],
            [
              136.62924322550128,
              36.53017060846359
            ],
            [
              136.6292467478798,
              36.530198912304584
            ],
            [
              136.6295038815249,
              36.53021023383823
            ],
            [
              136.62958841861325,
              36.530278163003956
            ],
            [
              136.62959898574894,
              36.530609316833434
            ],
            [
              136.62949331438932,
              36.53068856711222
            ],
            [
              136.6294052549208,
              36.53069139747835
            ],
            [
              136.62937707589236,
              36.530634790146394
            ],
            [
              136.62931015069677,
              36.530651772350225
            ],
            [
              136.62929958356114,
              36.53069988857419
            ],
            [
              136.62920095695705,
              36.53069988857419
            ],
            [
              136.62919391219998,
              36.53066592418398
            ],
            [
              136.62912346462582,
              36.53067441528265
            ]
          ]
        ]
      },
      "properties": {
        "tempId": "B-05",
        "code": "8",
        "name": "8号館",
        "floors": 5,
        "note": "パソコンセンターが３階、自己開発センターが２階",
        "category": "hall"
      }
    },
    {
      "type": "Feature",
      "geometry": {
        "type": "Polygon",
        "coordinates": [
          [
            [
              136.62891043172226,
              36.53022205603013
            ],
            [
              136.62914132202962,
              36.53021554619541
            ],
            [
              136.62914942344355,
              36.53017323225491
            ],
            [
              136.62951803779572,
              36.53016346749574
            ],
            [
              136.62950588567293,
              36.5301276633694
            ],
            [
              136.62956259557438,
              36.53012115352671
            ],
            [
              136.6295950012303,
              36.530069074763475
            ],
            [
              136.62940056728763,
              36.5296915026818
            ],
            [
              136.6293155024373,
              36.52974032676114
            ],
            [
              136.62926284324465,
              36.52974683663656
            ],
            [
              136.62926284324465,
              36.52967197304133
            ],
            [
              136.62899144586567,
              36.52966546315956
            ],
            [
              136.62898334445168,
              36.529714287256056
            ],
            [
              136.62893068525904,
              36.529714287256056
            ],
            [
              136.62893068525904,
              36.52976636625819
            ],
            [
              136.6288982796014,
              36.52976636625819
            ],
            [
              136.62891043172226,
              36.53022205603013
            ]
          ]
        ]
      },
      "properties": {
        "tempId": "B-06",
        "code": "21",
        "name": "21号館",
        "floors": 6,
        "note": "日本学研究所が６階、KITブックセンターが２階、KITサービスセンターが２階、カフェテリア",
        "category": "hall"
      }
    },
    {
      "type": "Feature",
      "geometry": {
        "type": "Polygon",
        "coordinates": [
          [
            [
              136.62910902771216,
              36.53201935483109
            ],
            [
              136.62912406491512,
              36.531977065164114
            ],
            [
              136.62909399050756,
              36.531977065164114
            ],
            [
              136.6290639161017,
              36.53166895403267
            ],
            [
              136.62912406491512,
              36.53166291262589
            ],
            [
              136.62912406491512,
              36.531554167218914
            ],
            [
              136.6297781832692,
              36.53154812580321
            ],
            [
              136.62980073907363,
              36.53191060992593
            ],
            [
              136.62999622272002,
              36.5319045685374
            ],
            [
              136.6299887041186,
              36.53204352034521
            ],
            [
              136.62931202996003,
              36.53206164447556
            ],
            [
              136.62929699275543,
              36.5320314375891
            ],
            [
              136.62913910211796,
              36.532025396210656
            ],
            [
              136.62910902771216,
              36.53201935483109
            ]
          ]
        ]
      },
      "properties": {
        "tempId": "B-07",
        "code": "24",
        "name": "24号館",
        "floors": 3,
        "note": "プロジェクト教育センターが２階",
        "category": "hall"
      }
    },
    {
      "type": "Feature",
      "geometry": {
        "type": "Polygon",
        "coordinates": [
          [
            [
              136.62901618455663,
              36.5331905714948
            ],
            [
              136.62899204467652,
              36.53244487300984
            ],
            [
              136.629045688857,
              36.53244271780156
            ],
            [
              136.62903496002144,
              36.53227892179086
            ],
            [
              136.62986108039797,
              36.53225736965878
            ],
            [
              136.6298128006353,
              36.53242978655021
            ],
            [
              136.6297859785439,
              36.532431941758844
            ],
            [
              136.62964650367593,
              36.53266039354227
            ],
            [
              136.62954189752384,
              36.532658238339536
            ],
            [
              136.62952312206147,
              36.53268841116716
            ],
            [
              136.62934877847545,
              36.532697031972944
            ],
            [
              136.6293514606843,
              36.533220744114715
            ],
            [
              136.62920662139857,
              36.533229364861185
            ],
            [
              136.62919321035167,
              36.53319703705736
            ],
            [
              136.62901618455663,
              36.5331905714948
            ]
          ]
        ]
      },
      "properties": {
        "tempId": "B-08",
        "code": "31",
        "name": "31号館",
        "floors": 4,
        "note": "国際高等専門学校が１階から４階、AIラボが２階、AI Dream Factoryが２階、ロボティクスラボが2階",
        "category": "hall"
      }
    },
    {
      "type": "Feature",
      "geometry": {
        "type": "Polygon",
        "coordinates": [
          [
            [
              136.63095734529463,
              36.532587178529596
            ],
            [
              136.6311755550721,
              36.532526717962696
            ],
            [
              136.6312282263974,
              36.53260531669051
            ],
            [
              136.63140128932605,
              36.532562994308634
            ],
            [
              136.63119812849823,
              36.532006755132215
            ],
            [
              136.63107021242166,
              36.532049077819124
            ],
            [
              136.63104011452077,
              36.53201884733092
            ],
            [
              136.63077675789282,
              36.5320914004822
            ],
            [
              136.63095734529463,
              36.532587178529596
            ]
          ]
        ]
      },
      "properties": {
        "tempId": "B-09",
        "code": "41",
        "name": "41号館",
        "floors": 2,
        "note": "夢考房",
        "category": "hall"
      }
    },
    {
      "type": "Feature",
      "geometry": {
        "type": "Polygon",
        "coordinates": [
          [
            [
              136.62736181805127,
              36.529242781846804
            ],
            [
              136.62852878912082,
              36.52921755161945
            ],
            [
              136.628518323013,
              36.52908719531277
            ],
            [
              136.6273565849973,
              36.52912083567141
            ],
            [
              136.62736181805127,
              36.529242781846804
            ]
          ]
        ]
      },
      "properties": {
        "tempId": "B-10",
        "code": "11",
        "name": "11号館",
        "floors": 2,
        "note": "扇が丘診療所が1階、学友会が1階",
        "category": "hall"
      }
    },
    {
      "type": "Feature",
      "geometry": {
        "type": "Polygon",
        "coordinates": [
          [
            [
              136.62810141726789,
              36.52909261340433
            ],
            [
              136.6282489387649,
              36.52909045810266
            ],
            [
              136.6282543031827,
              36.52895251866447
            ],
            [
              136.62834013387004,
              36.52893958682958
            ],
            [
              136.628342816079,
              36.5288425979988
            ],
            [
              136.62824357434704,
              36.5288361320722
            ],
            [
              136.62824089213575,
              36.52877578339994
            ],
            [
              136.62809337064112,
              36.52878655995207
            ],
            [
              136.62810141726789,
              36.52909261340433
            ]
          ]
        ]
      },
      "properties": {
        "tempId": "B-11",
        "code": "10",
        "name": "10号館",
        "floors": 2,
        "note": "進路開発センターが2階、扇が丘保育園が1階",
        "category": "hall"
      }
    },
    {
      "type": "Feature",
      "geometry": {
        "type": "Polygon",
        "coordinates": [
          [
            [
              136.62810280538235,
              36.52876903786472
            ],
            [
              136.62809912959221,
              36.528597722437894
            ],
            [
              136.62852184546983,
              36.52858000013073
            ],
            [
              136.62852552125992,
              36.528771991575525
            ],
            [
              136.62810280538235,
              36.52876903786472
            ]
          ]
        ]
      },
      "properties": {
        "tempId": "B-12",
        "code": "12",
        "name": "12号館",
        "floors": 0,
        "note": "SDGs推進センターが1階",
        "category": "hall"
      }
    },
    {
      "type": "Feature",
      "geometry": {
        "type": "Polygon",
        "coordinates": [
          [
            [
              136.62812993521277,
              36.528568689290324
            ],
            [
              136.62842766041337,
              36.52855575739129
            ],
            [
              136.62843034262227,
              36.52845661275988
            ],
            [
              136.6284947156384,
              36.52845445744049
            ],
            [
              136.6284893512206,
              36.52810098423164
            ],
            [
              136.62803874010518,
              36.52811176087776
            ],
            [
              136.62805483336103,
              36.52845661275988
            ],
            [
              136.62812993521277,
              36.52845876807922
            ],
            [
              136.62812993521277,
              36.528568689290324
            ]
          ]
        ]
      },
      "properties": {
        "tempId": "B-13",
        "code": "13",
        "name": "13号館",
        "floors": 2,
        "note": "第１体育館",
        "category": "hall"
      }
    },
    {
      "type": "Feature",
      "geometry": {
        "type": "Polygon",
        "coordinates": [
          [
            [
              136.62802290629452,
              36.528019790581155
            ],
            [
              136.6285057039168,
              36.528009013922215
            ],
            [
              136.6284842462432,
              36.52730852787293
            ],
            [
              136.62800681303872,
              36.527319304629486
            ],
            [
              136.62802290629452,
              36.528019790581155
            ]
          ]
        ]
      },
      "properties": {
        "tempId": "B-14",
        "code": "20",
        "name": "20号館",
        "floors": 2,
        "note": "第２体育館、スポーツ考房が2階",
        "category": "hall"
      }
    },
    {
      "type": "Feature",
      "geometry": {
        "type": "Polygon",
        "coordinates": [
          [
            [
              136.6264612325051,
              36.52843346597908
            ],
            [
              136.6278152690905,
              36.52839642590975
            ],
            [
              136.6278008644466,
              36.52825752549202
            ],
            [
              136.6264554706476,
              36.528282990587286
            ],
            [
              136.6264612325051,
              36.52843346597908
            ]
          ]
        ]
      },
      "properties": {
        "tempId": "B-15",
        "code": "17",
        "name": "17号館",
        "floors": 3,
        "note": "電気・光・エネルギー応用研究センター",
        "category": "hall"
      }
    },
    {
      "type": "Feature",
      "geometry": {
        "type": "Polygon",
        "coordinates": [
          [
            [
              136.626458304631,
              36.528247632874965
            ],
            [
              136.62728016936836,
              36.52822734691786
            ],
            [
              136.6272913893668,
              36.528105631065
            ],
            [
              136.62646110963004,
              36.52813042505065
            ],
            [
              136.626458304631,
              36.528247632874965
            ]
          ]
        ]
      },
      "properties": {
        "tempId": "B-16",
        "code": "32",
        "name": "32号館",
        "floors": 1,
        "note": "電気・光・エネルギー応用研究センター",
        "category": "hall"
      }
    },
    {
      "type": "Feature",
      "geometry": {
        "type": "Polygon",
        "coordinates": [
          [
            [
              136.62889252641065,
              36.5293045308226
            ],
            [
              136.6288818762809,
              36.528915999482976
            ],
            [
              136.62917794984992,
              36.52890915309776
            ],
            [
              136.62918646995223,
              36.529297684472525
            ],
            [
              136.62889252641065,
              36.5293045308226
            ]
          ]
        ]
      },
      "properties": {
        "tempId": "B-17",
        "code": "29",
        "name": "29号館",
        "floors": 2,
        "note": "法人本部",
        "category": "hall"
      }
    },
    {
      "type": "Feature",
      "geometry": {
        "type": "Polygon",
        "coordinates": [
          [
            [
              136.62887907016977,
              36.52886829994809
            ],
            [
              136.6291750499804,
              36.528864802350114
            ],
            [
              136.6291706973363,
              36.52855701309667
            ],
            [
              136.62887036487962,
              36.5285535154846
            ],
            [
              136.62887907016977,
              36.52886829994809
            ]
          ]
        ]
      },
      "properties": {
        "tempId": "B-18",
        "code": "9",
        "name": "9号館",
        "floors": 2,
        "note": "放送大学石川学習センター",
        "category": "hall"
      }
    },
    {
      "type": "Feature",
      "geometry": {
        "type": "Polygon",
        "coordinates": [
          [
            [
              136.628798490034,
              36.52849429852395
            ],
            [
              136.62892187164846,
              36.528496453842735
            ],
            [
              136.62892723606626,
              36.528526628293505
            ],
            [
              136.62915522383287,
              36.52852231765851
            ],
            [
              136.62916595266847,
              36.52840377509814
            ],
            [
              136.6290291600095,
              36.5284059304189
            ],
            [
              136.62901843117385,
              36.528375755920635
            ],
            [
              136.6287958078251,
              36.52838006656425
            ],
            [
              136.628798490034,
              36.52849429852395
            ]
          ]
        ]
      },
      "properties": {
        "tempId": "B-19",
        "code": "39",
        "name": "39号館",
        "floors": 2,
        "note": "建築アーカイヴス研究所",
        "category": "hall"
      }
    },
    {
      "type": "Feature",
      "geometry": {
        "type": "Polygon",
        "coordinates": [
          [
            [
              136.62773723944395,
              36.52879726031641
            ],
            [
              136.62806117770623,
              36.52879160155305
            ],
            [
              136.62807056722068,
              36.528750103940794
            ],
            [
              136.6280869988709,
              36.52874821768526
            ],
            [
              136.62808465149232,
              36.52864824607083
            ],
            [
              136.62805413556828,
              36.52864824607083
            ],
            [
              136.62805178818974,
              36.528667108649515
            ],
            [
              136.62799779847967,
              36.52867088116453
            ],
            [
              136.62799310372253,
              36.52846905134504
            ],
            [
              136.6277912291539,
              36.52845773376907
            ],
            [
              136.6277794922609,
              36.52867842619487
            ],
            [
              136.62773254468664,
              36.52868974373773
            ],
            [
              136.62773723944395,
              36.52879726031641
            ]
          ]
        ]
      },
      "properties": {
        "tempId": "B-20",
        "code": "15",
        "name": "15号館",
        "floors": 5,
        "note": "地域共創イノベーション研究所が5階",
        "category": "hall"
      }
    },
    {
      "type": "Feature",
      "geometry": {
        "type": "Polygon",
        "coordinates": [
          [
            [
              136.62926912887053,
              36.530961432269194
            ],
            [
              136.62975192649282,
              36.53095065602007
            ],
            [
              136.62975460870172,
              36.530812719899345
            ],
            [
              136.6297948418353,
              36.53080409888351
            ],
            [
              136.6297948418353,
              36.53076961481105
            ],
            [
              136.62925571782364,
              36.53077823583071
            ],
            [
              136.62926912887053,
              36.530961432269194
            ]
          ]
        ]
      },
      "properties": {
        "tempId": "B-21",
        "code": "26",
        "name": "26号館",
        "floors": 0,
        "note": "Challenge Lab",
        "category": "hall"
      }
    },
    {
      "type": "Feature",
      "geometry": {
        "type": "Polygon",
        "coordinates": [
          [
            [
              136.628975874018,
              36.53097220847576
            ],
            [
              136.6291743574866,
              36.53097436372498
            ],
            [
              136.6291716752777,
              36.53075883849465
            ],
            [
              136.62896246297345,
              36.53074806221733
            ],
            [
              136.628975874018,
              36.53097220847576
            ]
          ]
        ]
      },
      "properties": {
        "tempId": "B-22",
        "code": "27",
        "name": "27号館",
        "floors": 2,
        "note": "コンビニエンスストアが2階、学生ラウンジが1階",
        "category": "hall"
      }
    },
    {
      "type": "Feature",
      "geometry": {
        "type": "Polygon",
        "coordinates": [
          [
            [
              136.62581702288583,
              36.53183793443654
            ],
            [
              136.62595438814589,
              36.531835425877816
            ],
            [
              136.62595126620823,
              36.53158456958464
            ],
            [
              136.62587633970168,
              36.53157955245072
            ],
            [
              136.62587633970168,
              36.531559483910485
            ],
            [
              136.6259387784565,
              36.531551958207004
            ],
            [
              136.6259356565189,
              36.53129106668881
            ],
            [
              136.62587009582649,
              36.53128604953527
            ],
            [
              136.6258669738889,
              36.531258455186844
            ],
            [
              136.6259231687685,
              36.53125594660929
            ],
            [
              136.6259294126437,
              36.53112299187944
            ],
            [
              136.62581077901058,
              36.53112550046123
            ],
            [
              136.62580453513402,
              36.531213300777395
            ],
            [
              136.625770193819,
              36.531230860828515
            ],
            [
              136.625770193819,
              36.531775220441844
            ],
            [
              136.62582638869867,
              36.53178023756311
            ],
            [
              136.62581702288583,
              36.53183793443654
            ],
            [
              136.62581702288583,
              36.53183793443654
            ]
          ]
        ]
      },
      "properties": {
        "tempId": "B-23",
        "code": "47",
        "name": "47号館",
        "floors": 3,
        "note": "KIT国際交流会館",
        "category": "hall"
      }
    },
    {
      "type": "Feature",
      "geometry": {
        "type": "Polygon",
        "coordinates": [
          [
            [
              136.62637203326307,
              36.52810747561024
            ],
            [
              136.62785205769717,
              36.52808340079304
            ],
            [
              136.62782808968973,
              36.52727929759793
            ],
            [
              136.62632409724824,
              36.52730337266537
            ],
            [
              136.62637203326307,
              36.52810747561024
            ]
          ]
        ]
      },
      "properties": {
        "tempId": "B-24",
        "code": "",
        "name": "グラウンド",
        "floors": 0,
        "note": "",
        "category": "facility"
      }
    },
    {
      "type": "Feature",
      "geometry": {
        "type": "Polygon",
        "coordinates": [
          [
            [
              136.63035805724815,
              36.53082762529087
            ],
            [
              136.63053825225467,
              36.5307902592686
            ],
            [
              136.63047431209122,
              36.53060809965133
            ],
            [
              136.63070682177477,
              36.530547379684094
            ],
            [
              136.63063125612751,
              36.530374561053534
            ],
            [
              136.63023017692137,
              36.530472647350706
            ],
            [
              136.63035805724815,
              36.53082762529087
            ]
          ]
        ]
      },
      "properties": {
        "tempId": "B-25",
        "category": "hall",
        "code": "28",
        "name": "28号館",
        "floors": 2,
        "note": "コミュニティ放送局、えふえむ・エヌ・ワン、校友会事務局"
      }
    },
    {
      "type": "Feature",
      "geometry": {
        "type": "Polygon",
        "coordinates": [
          [
            [
              136.6307416293048,
              36.532063717326835
            ],
            [
              136.6308355066189,
              36.53202707859613
            ],
            [
              136.6307523581404,
              36.53178784881001
            ],
            [
              136.6307845446497,
              36.53177922790286
            ],
            [
              136.63084623545694,
              36.53191500707692
            ],
            [
              136.63092938393538,
              36.5318912996193
            ],
            [
              136.63086769312815,
              36.5317188815269
            ],
            [
              136.63084087103675,
              36.5317231919842
            ],
            [
              136.63079527348532,
              36.531680087403345
            ],
            [
              136.63070944279553,
              36.531705950154546
            ],
            [
              136.63071748942224,
              36.5317231919842
            ],
            [
              136.6306343409438,
              36.53175336517613
            ],
            [
              136.6307416293048,
              36.532063717326835
            ]
          ]
        ]
      },
      "properties": {
        "tempId": "B-26",
        "category": "hall",
        "code": "43",
        "name": "43号館",
        "floors": 1,
        "note": "心理科学研究所、臨床心理センター"
      }
    },
    {
      "type": "Feature",
      "geometry": {
        "type": "Polygon",
        "coordinates": [
          [
            [
              136.6257722794382,
              36.533400011164005
            ],
            [
              136.62592013145587,
              36.53340331117961
            ],
            [
              136.62592013145587,
              36.53305350872422
            ],
            [
              136.62595298745816,
              36.53305350872422
            ],
            [
              136.62594477345766,
              36.5327532053536
            ],
            [
              136.6257640654377,
              36.53275650539754
            ],
            [
              136.6257722794382,
              36.533400011164005
            ]
          ]
        ]
      },
      "properties": {
        "tempId": "B-27",
        "category": "hall",
        "code": "40",
        "name": "40号館",
        "floors": 0,
        "note": "光電相互交換デバイスシステム研究開発センター"
      }
    },
    {
      "type": "Feature",
      "geometry": {
        "type": "Polygon",
        "coordinates": [
          [
            [
              136.62639662708682,
              36.52954406159459
            ],
            [
              136.62719906950122,
              36.52951208790323
            ],
            [
              136.62719243774455,
              36.52917636335137
            ],
            [
              136.62642315410773,
              36.52919235026779
            ],
            [
              136.62639662708682,
              36.52954406159459
            ]
          ]
        ]
      },
      "properties": {
        "tempId": "B-28",
        "category": "facility",
        "code": "",
        "name": "テニスコート",
        "floors": 0,
        "note": ""
      }
    },
    {
      "type": "Feature",
      "geometry": {
        "type": "Polygon",
        "coordinates": [
          [
            [
              136.62665545858067,
              36.53196272682429
            ],
            [
              136.62755483696998,
              36.531933947807744
            ],
            [
              136.62756279607044,
              36.53163656401249
            ],
            [
              136.62763840752854,
              36.53163336633121
            ],
            [
              136.62761453022534,
              36.53140313292079
            ],
            [
              136.62702555676708,
              36.53142551675447
            ],
            [
              136.6269897408131,
              36.53100022280326
            ],
            [
              136.62707729092187,
              36.53098423426319
            ],
            [
              136.62707729092187,
              36.530881907528624
            ],
            [
              136.62660770397434,
              36.53090429151315
            ],
            [
              136.62660770397434,
              36.53128162056669
            ],
            [
              136.6266355608277,
              36.53128801595821
            ],
            [
              136.6266355608277,
              36.53140313292079
            ],
            [
              136.62665545858067,
              36.53196272682429
            ]
          ]
        ]
      },
      "properties": {
        "tempId": "B-29",
        "category": "hall",
        "code": "6",
        "name": "6号館",
        "floors": 8,
        "note": "ライブラリーセンター、イガラシアーカイブが2階、PMCが3階、多目的ホールが3階"
      }
    },
    {
      "type": "Feature",
      "geometry": {
        "type": "Polygon",
        "coordinates": [
          [
            [
              136.62646314843545,
              36.53012696983423
            ],
            [
              136.6266935960296,
              36.53012696983423
            ],
            [
              136.62669719677308,
              36.53022534387205
            ],
            [
              136.6270176629581,
              36.53022534387205
            ],
            [
              136.6270176629581,
              36.53033818452609
            ],
            [
              136.62719770014155,
              36.530343971222294
            ],
            [
              136.6271688941918,
              36.53010382298386
            ],
            [
              136.62696365180386,
              36.53009514291281
            ],
            [
              136.62695284957329,
              36.529953368285575
            ],
            [
              136.6271040808071,
              36.52993890147225
            ],
            [
              136.6271112822941,
              36.529849207169704
            ],
            [
              136.6265963759517,
              36.529854993901864
            ],
            [
              136.6265891744647,
              36.52993890147225
            ],
            [
              136.62644874546146,
              36.52994468819827
            ],
            [
              136.62646314843545,
              36.53012696983423
            ]
          ]
        ]
      },
      "properties": {
        "tempId": "B-30",
        "category": "hall",
        "code": "2",
        "name": "2号館",
        "floors": 2,
        "note": "金沢歴史都市建築研究所"
      }
    },
    {
      "type": "Feature",
      "geometry": {
        "type": "Polygon",
        "coordinates": [
          [
            [
              136.62657247288706,
              36.53068767980116
            ],
            [
              136.62657247288706,
              36.530500172189534
            ],
            [
              136.62698553307536,
              36.53049370640149
            ],
            [
              136.62699626191102,
              36.53056051951637
            ],
            [
              136.6270364950446,
              36.53055405373338
            ],
            [
              136.62703917725588,
              36.530398874784765
            ],
            [
              136.6271813343327,
              36.53039456425414
            ],
            [
              136.6271893809594,
              36.530737250702856
            ],
            [
              136.62705527050935,
              36.530739405958656
            ],
            [
              136.62704454167368,
              36.530627332573076
            ],
            [
              136.62701235516442,
              36.530627332573076
            ],
            [
              136.62700699074662,
              36.53068983505831
            ],
            [
              136.62657247288706,
              36.53068767980116
            ]
          ]
        ]
      },
      "properties": {
        "tempId": "B-31",
        "category": "hall",
        "code": "3",
        "name": "3号館",
        "floors": 2,
        "note": ""
      }
    },
    {
      "type": "Feature",
      "geometry": {
        "type": "Polygon",
        "coordinates": [
          [
            [
              136.62806567549387,
              36.53207205430812
            ],
            [
              136.62871363780954,
              36.53205036042492
            ],
            [
              136.62870463833326,
              36.532021435238065
            ],
            [
              136.62806567549387,
              36.532043129129406
            ],
            [
              136.62806567549387,
              36.53207205430812
            ]
          ]
        ]
      },
      "properties": {
        "tempId": "B-32",
        "category": "outdoor",
        "code": "",
        "name": "自転車",
        "floors": 0,
        "note": ""
      }
    },
    {
      "type": "Feature",
      "geometry": {
        "type": "Polygon",
        "coordinates": [
          [
            [
              136.62664063620167,
              36.532120601834606
            ],
            [
              136.6272857128406,
              36.532104591513246
            ],
            [
              136.62728820348394,
              36.53206456569583
            ],
            [
              136.62664312684495,
              36.53207257086149
            ],
            [
              136.62664063620167,
              36.532120601834606
            ]
          ]
        ]
      },
      "properties": {
        "tempId": "B-33",
        "category": "outdoor",
        "code": "",
        "name": "自転車",
        "floors": 0,
        "note": ""
      }
    },
    {
      "type": "Feature",
      "geometry": {
        "type": "Polygon",
        "coordinates": [
          [
            [
              136.62653616047453,
              36.531234256135676
            ],
            [
              136.62652923769895,
              36.530900494899996
            ],
            [
              136.62657077435404,
              36.53082261707121
            ],
            [
              136.6268373012249,
              36.530805928954905
            ],
            [
              136.6268373012249,
              36.53072805103085
            ],
            [
              136.62655692880128,
              36.53074752051907
            ],
            [
              136.6265534674135,
              36.53080871030777
            ],
            [
              136.62648770104232,
              36.53089771355047
            ],
            [
              136.62653616047453,
              36.531234256135676
            ]
          ]
        ]
      },
      "properties": {
        "tempId": "B-34",
        "category": "outdoor",
        "code": "",
        "name": "自転車",
        "floors": 0,
        "note": ""
      }
    },
    {
      "type": "Feature",
      "geometry": {
        "type": "Polygon",
        "coordinates": [
          [
            [
              136.62967651716713,
              36.530678371606996
            ],
            [
              136.62986955566373,
              36.5306473488379
            ],
            [
              136.6297558774387,
              36.53038537828748
            ],
            [
              136.62967651716713,
              36.530368143351666
            ],
            [
              136.62967651716713,
              36.530678371606996
            ]
          ]
        ]
      },
      "properties": {
        "tempId": "B-35",
        "category": "outdoor",
        "code": "",
        "name": "自転車",
        "floors": 0,
        "note": ""
      }
    },
    {
      "type": "Feature",
      "geometry": {
        "type": "Polygon",
        "coordinates": [
          [
            [
              136.62995659282188,
              36.5313991820323
            ],
            [
              136.62997125113782,
              36.53106676849423
            ],
            [
              136.6303263081033,
              36.53096468845901
            ],
            [
              136.63047777735886,
              36.531331128983155
            ],
            [
              136.6301666953383,
              36.53140179945596
            ],
            [
              136.62995659282188,
              36.5313991820323
            ]
          ]
        ]
      },
      "properties": {
        "tempId": "B-36",
        "category": "outdoor",
        "code": "",
        "name": "自転車",
        "floors": 0,
        "note": ""
      }
    },
    {
      "type": "Feature",
      "geometry": {
        "type": "Polygon",
        "coordinates": [
          [
            [
              136.62737623363807,
              36.529255714151134
            ],
            [
              136.62788297622325,
              36.52925272007367
            ],
            [
              136.62787925017335,
              36.52941440009651
            ],
            [
              136.62735760339677,
              36.529430867487264
            ],
            [
              136.62737623363807,
              36.529255714151134
            ]
          ]
        ]
      },
      "properties": {
        "tempId": "B-37",
        "category": "outdoor",
        "code": "",
        "name": "自転車",
        "floors": 0,
        "note": ""
      }
    },
    {
      "type": "Feature",
      "geometry": {
        "type": "Polygon",
        "coordinates": [
          [
            [
              136.63116016398936,
              36.532546085950685
            ],
            [
              136.6311858363784,
              36.53262344184337
            ],
            [
              136.6310382201434,
              36.53266985534154
            ],
            [
              136.63101254775427,
              36.532582185377024
            ],
            [
              136.63116016398936,
              36.532546085950685
            ]
          ]
        ]
      },
      "properties": {
        "tempId": "B-38",
        "category": "hall",
        "code": "36",
        "name": "36号館",
        "floors": 1,
        "note": "カウンセリングセンター"
      }
    }
  ]
}