{
  "type": "FeatureCollection",
  "features": [
    {
      "type": "Feature",
      "geometry": {
        "type": "Polygon",
        "coordinates": [
          [
            [
              136.62572161170777,
              36.53343551592346
            ],
            [
              136.62602479081488,
              36.53344658898311
            ],
            [
              136.62606613342018,
              36.53229498230699
            ],
            [
              136.62876718364618,
              36.53225068939999
            ],
            [
              136.62886364972638,
              36.533369077533564
            ],
            [
              136.62973184444212,
              36.53343551592346
            ],
            [
              136.63002124267967,
              36.53281542206322
            ],
            [
              136.63099968434364,
              36.53284864150312
            ],
            [
              136.63155091908436,
              36.532616105123594
            ],
            [
              136.63065516263117,
              36.53030177638196
            ],
            [
              136.62995233833692,
              36.53045680535158
            ],
            [
              136.62952513141374,
              36.52960414217263
            ],
            [
              136.6292770757816,
              36.52844140450782
            ],
            [
              136.62879474538357,
              36.528408183174335
            ],
            [
              136.62873962190878,
              36.527123614024106
            ],
            [
              136.626135037763,
              36.52726757542165
            ],
            [
              136.62624528471116,
              36.52958199495207
            ],
            [
              136.62557002215425,
              36.52978131971095
            ],
            [
              136.62572161170777,
              36.53343551592346
            ]
          ]
        ]
      },
      "properties": {
        "name": "キャンパス敷地"
      }
    }
  ]
}