{
  "type": "FeatureCollection",
  "features": [
    {
      "type": "Feature",
      "geometry": {
        "type": "Polygon",
        "coordinates": [
          [
            [
              136.6257075731669,
              36.533495493126495
            ],
            [
              136.62601942577618,
              36.533495493126495
            ],
            [
              136.62603501840601,
              36.53243053620385
            ],
            [
              136.6287793213712,
              36.53241800721139
            ],
            [
              136.6288338955792,
              36.53343284900734
            ],
            [
              136.629777631561,
              36.53347669989354
            ],
            [
              136.63127452408764,
              36.53311336320931
            ],
            [
              136.63181246984016,
              36.532894107487536
            ],
            [
              136.6314070614461,
              36.53145111148237
            ],
            [
              136.6310484309456,
              36.53047383161575
            ],
            [
              136.6308613193761,
              36.52990687833939
            ],
            [
              136.63061573544718,
              36.52939003886101
            ],
            [
              136.630163750368,
              36.52828438486179
            ],
            [
              136.62891249145173,
              36.52822207592702
            ],
            [
              136.62873707435898,
              36.52777727125745
            ],
            [
              136.62860604742718,
              36.52723586664838
            ],
            [
              136.62757303565775,
              36.52718261484104
            ],
            [
              136.62757303564717,
              36.52718261484503
            ],
            [
              136.62619562049497,
              36.52721213099149
            ],
            [
              136.6252575853389,
              36.52728090591344
            ],
            [
              136.62524128767615,
              36.5298292625926
            ],
            [
              136.62544794697794,
              36.532988527728264
            ],
            [
              136.6257075731669,
              36.533495493126495
            ]
          ]
        ]
      },
      "properties": {
        "name": "キャンパス敷地"
      }
    },
    {
      "type": "Feature",
      "geometry": {
        "type": "Polygon",
        "coordinates": [
          [
            [
              136.62160934233748,
              36.53297199357188
            ],
            [
              136.62184049998592,
              36.532985260607006
            ],
            [
              136.62189003376756,
              36.53228210461954
            ],
            [
              136.625365654127,
              36.53236170750486
            ],
            [
              136.6253986766469,
              36.53210963141932
            ],
            [
              136.62447404605336,
              36.53212289860241
            ],
            [
              136.623532904198,
              36.531996860273196
            ],
            [
              136.62165062048922,
              36.53204992906845
            ],
            [
              136.6215267860341,
              36.532573981466086
            ],
            [
              136.62160934233748,
              36.53297199357188
            ]
          ]
        ]
      },
      "properties": {
        "name": "キャンパス敷地"
      }
    }
  ]
}